[{"OBJECT_NAME":"ELECTRON R/B","OBJECT_ID":"2026-065C","EPOCH":"2026-04-03T08:51:35.032608","MEAN_MOTION":16.33068968,"ECCENTRICITY":0.00698542,"INCLINATION":97.3609,"RA_OF_ASC_NODE":336.1707,"ARG_OF_PERICENTER":198.0172,"MEAN_ANOMALY":161.8648,"EPHEMERIS_TYPE":0,"CLASSIFICATION_TYPE":"U","NORAD_CAT_ID":68410,"ELEMENT_SET_NO":999,"REV_AT_EPOCH":88,"BSTAR":0.0004842293,"MEAN_MOTION_DOT":0.13281109,"MEAN_MOTION_DDOT":1.659494e-6},{"OBJECT_NAME":"ELECTRON KICK STAGE R/B","OBJECT_ID":"2026-065D","EPOCH":"2026-04-03T10:37:35.976864","MEAN_MOTION":15.83817593,"ECCENTRICITY":0.01760393,"INCLINATION":97.416,"RA_OF_ASC_NODE":336.0543,"ARG_OF_PERICENTER":10.7329,"MEAN_ANOMALY":349.7619,"EPHEMERIS_TYPE":0,"CLASSIFICATION_TYPE":"U","NORAD_CAT_ID":68411,"ELEMENT_SET_NO":999,"REV_AT_EPOCH":96,"BSTAR":0.00034496954,"MEAN_MOTION_DOT":0.00267226,"MEAN_MOTION_DDOT":2.237865e-6},{"OBJECT_NAME":"XINZHENGCHENG-01","OBJECT_ID":"2026-066A","EPOCH":"2026-04-02T23:56:28.789152","MEAN_MOTION":14.88095472,"ECCENTRICITY":0.00234411,"INCLINATION":84.8508,"RA_OF_ASC_NODE":275.7933,"ARG_OF_PERICENTER":189.3714,"MEAN_ANOMALY":170.7075,"EPHEMERIS_TYPE":0,"CLASSIFICATION_TYPE":"U","NORAD_CAT_ID":68412,"ELEMENT_SET_NO":999,"REV_AT_EPOCH":54,"BSTAR":0.00013573271,"MEAN_MOTION_DOT":1.283e-5,"MEAN_MOTION_DDOT":0},{"OBJECT_NAME":"LIJIAN-2 R/B","OBJECT_ID":"2026-066B","EPOCH":"2026-04-03T17:49:54.950304","MEAN_MOTION":15.22567818,"ECCENTRICITY":0.05256653,"INCLINATION":84.7058,"RA_OF_ASC_NODE":274.9472,"ARG_OF_PERICENTER":196.4876,"MEAN_ANOMALY":161.8704,"EPHEMERIS_TYPE":0,"CLASSIFICATION_TYPE":"U","NORAD_CAT_ID":68413,"ELEMENT_SET_NO":999,"REV_AT_EPOCH":65,"BSTAR":0.00032952559,"MEAN_MOTION_DOT":0.0332571,"MEAN_MOTION_DDOT":-1.368208e-6},{"OBJECT_NAME":"2026-066C","OBJECT_ID":"2026-066C","EPOCH":"2026-04-03T19:18:33.177024","MEAN_MOTION":14.90103412,"ECCENTRICITY":0.00655474,"INCLINATION":85.1331,"RA_OF_ASC_NODE":274.8711,"ARG_OF_PERICENTER":46.055,"MEAN_ANOMALY":314.6055,"EPHEMERIS_TYPE":0,"CLASSIFICATION_TYPE":"U","NORAD_CAT_ID":68414,"ELEMENT_SET_NO":999,"REV_AT_EPOCH":66,"BSTAR":0.00022927198,"MEAN_MOTION_DOT":2.339e-5,"MEAN_MOTION_DDOT":0},{"OBJECT_NAME":"SL-4 R/B","OBJECT_ID":"2026-061S","EPOCH":"2026-04-04T20:45:48.374208","MEAN_MOTION":15.92429505,"ECCENTRICITY":0.00243629,"INCLINATION":82.3042,"RA_OF_ASC_NODE":94.9319,"ARG_OF_PERICENTER":25.0332,"MEAN_ANOMALY":335.2117,"EPHEMERIS_TYPE":0,"CLASSIFICATION_TYPE":"U","NORAD_CAT_ID":68537,"ELEMENT_SET_NO":999,"REV_AT_EPOCH":193,"BSTAR":0.00060046648,"MEAN_MOTION_DOT":0.00208087,"MEAN_MOTION_DDOT":1.4743511e-5},{"OBJECT_NAME":"TACHELES","OBJECT_ID":"2026-069B","EPOCH":"2026-04-02T13:12:59.999616","MEAN_MOTION":1.02407762,"ECCENTRICITY":0.8430033,"INCLINATION":28.3448,"RA_OF_ASC_NODE":359.8421,"ARG_OF_PERICENTER":77.7942,"MEAN_ANOMALY":194.3023,"EPHEMERIS_TYPE":0,"CLASSIFICATION_TYPE":"U","NORAD_CAT_ID":68539,"ELEMENT_SET_NO":999,"REV_AT_EPOCH":0,"BSTAR":-0.0071298,"MEAN_MOTION_DOT":-0.00190496,"MEAN_MOTION_DDOT":1.1727e-6},{"OBJECT_NAME":"SWC-1","OBJECT_ID":"2026-069C","EPOCH":"2026-04-02T12:20:34.000224","MEAN_MOTION":1.01595625,"ECCENTRICITY":0.8375109,"INCLINATION":28.3462,"RA_OF_ASC_NODE":359.8168,"ARG_OF_PERICENTER":77.163,"MEAN_ANOMALY":217.7352,"EPHEMERIS_TYPE":0,"CLASSIFICATION_TYPE":"U","NORAD_CAT_ID":68540,"ELEMENT_SET_NO":999,"REV_AT_EPOCH":0,"BSTAR":-1.7117,"MEAN_MOTION_DOT":-0.00154659,"MEAN_MOTION_DDOT":0},{"OBJECT_NAME":"K-RADCUBE","OBJECT_ID":"2026-069D","EPOCH":"2026-04-02T16:16:32.999808","MEAN_MOTION":1.02517944,"ECCENTRICITY":0.8450105,"INCLINATION":28.3341,"RA_OF_ASC_NODE":359.8703,"ARG_OF_PERICENTER":77.6642,"MEAN_ANOMALY":243.1767,"EPHEMERIS_TYPE":0,"CLASSIFICATION_TYPE":"U","NORAD_CAT_ID":68541,"ELEMENT_SET_NO":999,"REV_AT_EPOCH":3,"BSTAR":-1.7218e-5,"MEAN_MOTION_DOT":-0.00078411,"MEAN_MOTION_DDOT":1.9505e-6},{"OBJECT_NAME":"2026-071A","OBJECT_ID":"2026-071A","EPOCH":"2026-04-03T07:41:47.992704","MEAN_MOTION":1.98618778,"ECCENTRICITY":0.7241466,"INCLINATION":62.7917,"RA_OF_ASC_NODE":238.8364,"ARG_OF_PERICENTER":284.9481,"MEAN_ANOMALY":10.7459,"EPHEMERIS_TYPE":0,"CLASSIFICATION_TYPE":"U","NORAD_CAT_ID":68571,"ELEMENT_SET_NO":999,"REV_AT_EPOCH":1,"BSTAR":0.0016587,"MEAN_MOTION_DOT":-1.265e-5,"MEAN_MOTION_DDOT":0},{"OBJECT_NAME":"2026-071B","OBJECT_ID":"2026-071B","EPOCH":"2026-04-03T07:42:42.175872","MEAN_MOTION":2.01041412,"ECCENTRICITY":0.73138199,"INCLINATION":63.0589,"RA_OF_ASC_NODE":237.9448,"ARG_OF_PERICENTER":284.9724,"MEAN_ANOMALY":10.3188,"EPHEMERIS_TYPE":0,"CLASSIFICATION_TYPE":"U","NORAD_CAT_ID":68572,"ELEMENT_SET_NO":999,"REV_AT_EPOCH":1,"BSTAR":0.00035051942,"MEAN_MOTION_DOT":-1.541e-5,"MEAN_MOTION_DDOT":0}]
